STARLINK-36173          
1 67210U 25304U   26013.91668981 -.00012309  00000+0 -27786-3 0  9999
2 67210  70.0007 317.6125 0002521 270.8437  97.4597 15.42742290  5639
STARLINK-36280          
1 67211U 25304V   26013.91668981 -.00009486  00000+0 -21337-3 0  9998
2 67211  70.0006 317.5873 0003180 261.7432 128.6060 15.42729485  5637
STARLINK-36213          
1 67212U 25304W   26013.91668981 -.00011197  00000+0 -25252-3 0  9991
2 67212  70.0004 317.5622 0002994 265.1564 147.1804 15.42730835  5637
STARLINK-36199          
1 67213U 25304X   26013.91668981 -.00002292  00000+0 -48952-4 0  9991
2 67213  70.0002 317.5105 0003574 266.0921 191.2718 15.42715850  5638
STARLINK-36203          
1 67214U 25304Y   26013.91668981 -.02710107  00000+0 -65268-1 0  9991
2 67214  70.0001 317.4832 0003570 284.6850 194.1018 15.45041958  5636
STARLINK-36221          
1 67215U 25304Z   26013.91668981 -.02062033  00000+0 -45293-1 0  9996
2 67215  70.0003 317.4651 0003464 275.9678 218.2418 15.47276139  5636
STARLINK-36212          
1 67216U 25304AA  26013.95536078 -.00359849  00000+0 -66347-2 0  9998
2 67216  70.0002 317.3506 0003216 301.6270  58.4601 15.50236536  5565
STARLINK-36216          
1 67217U 25304AB  26013.76115642  .00064999  00000+0  10490-2 0  9993
2 67217  70.0002 317.8764 0003486 268.5480  91.5308 15.52560983  5537
STARLINK-36211          
1 67218U 25304AC  26013.76081425  .00060184  00000+0  97174-3 0  9992
2 67218  70.0002 317.8752 0003598 264.7758  95.3018 15.52571325  5504
DISKSAT C               
1 67219U 25305A   26013.72358512  .00006702  00000+0  46356-3 0  9996
2 67219  45.0014 181.5043 0001947  20.7935 339.3018 15.06389838  4002
DISKSAT B               
1 67220U 25305B   26013.85712395  .00006482  00000+0  44967-3 0  9996
2 67220  45.0014 180.8091 0001637  26.4540 333.6418 15.06322570  4023
DISKSAT D               
1 67221U 25305C   26013.52630727  .00006570  00000+0  45604-3 0  9996
2 67221  45.0014 182.5669 0002031  34.4465 325.6541 15.06284875  3974
