CCSDS_OMM_VERS = 2.0
CREATION_DATE  = 
ORIGINATOR     = 

OBJECT_NAME    = STARLINK-36173
OBJECT_ID      = 2025-304U
CENTER_NAME    = EARTH
REF_FRAME      = TEME
TIME_SYSTEM    = UTC
MEAN_ELEMENT_THEORY = SGP/SGP4

EPOCH          = 2026-01-13T22:00:01.999584
MEAN_MOTION    = 15.42742290
ECCENTRICITY   = .00025212
INCLINATION    = 70.0007
RA_OF_ASC_NODE = 317.6125
ARG_OF_PERICENTER = 270.8437
MEAN_ANOMALY   = 97.4597

EPHEMERIS_TYPE = 0
CLASSIFICATION_TYPE = U
NORAD_CAT_ID   = 67210
ELEMENT_SET_NO = 999
REV_AT_EPOCH   = 563
BSTAR          = -.27786202E-3
MEAN_MOTION_DOT = -.12309E-3
MEAN_MOTION_DDOT = 0

CCSDS_OMM_VERS = 2.0
CREATION_DATE  = 
ORIGINATOR     = 

OBJECT_NAME    = STARLINK-36280
OBJECT_ID      = 2025-304V
CENTER_NAME    = EARTH
REF_FRAME      = TEME
TIME_SYSTEM    = UTC
MEAN_ELEMENT_THEORY = SGP/SGP4

EPOCH          = 2026-01-13T22:00:01.999584
MEAN_MOTION    = 15.42729485
ECCENTRICITY   = .000318
INCLINATION    = 70.0006
RA_OF_ASC_NODE = 317.5873
ARG_OF_PERICENTER = 261.7432
MEAN_ANOMALY   = 128.6060

EPHEMERIS_TYPE = 0
CLASSIFICATION_TYPE = U
NORAD_CAT_ID   = 67211
ELEMENT_SET_NO = 999
REV_AT_EPOCH   = 563
BSTAR          = -.21337066E-3
MEAN_MOTION_DOT = -.9486E-4
MEAN_MOTION_DDOT = 0

CCSDS_OMM_VERS = 2.0
CREATION_DATE  = 
ORIGINATOR     = 

OBJECT_NAME    = STARLINK-36213
OBJECT_ID      = 2025-304W
CENTER_NAME    = EARTH
REF_FRAME      = TEME
TIME_SYSTEM    = UTC
MEAN_ELEMENT_THEORY = SGP/SGP4

EPOCH          = 2026-01-13T22:00:01.999584
MEAN_MOTION    = 15.42730835
ECCENTRICITY   = .00029946
INCLINATION    = 70.0004
RA_OF_ASC_NODE = 317.5622
ARG_OF_PERICENTER = 265.1564
MEAN_ANOMALY   = 147.1804

EPHEMERIS_TYPE = 0
CLASSIFICATION_TYPE = U
NORAD_CAT_ID   = 67212
ELEMENT_SET_NO = 999
REV_AT_EPOCH   = 563
BSTAR          = -.25251504E-3
MEAN_MOTION_DOT = -.11197E-3
MEAN_MOTION_DDOT = 0

CCSDS_OMM_VERS = 2.0
CREATION_DATE  = 
ORIGINATOR     = 

OBJECT_NAME    = STARLINK-36199
OBJECT_ID      = 2025-304X
CENTER_NAME    = EARTH
REF_FRAME      = TEME
TIME_SYSTEM    = UTC
MEAN_ELEMENT_THEORY = SGP/SGP4

EPOCH          = 2026-01-13T22:00:01.999584
MEAN_MOTION    = 15.42715850
ECCENTRICITY   = .00035743
INCLINATION    = 70.0002
RA_OF_ASC_NODE = 317.5105
ARG_OF_PERICENTER = 266.0921
MEAN_ANOMALY   = 191.2718

EPHEMERIS_TYPE = 0
CLASSIFICATION_TYPE = U
NORAD_CAT_ID   = 67213
ELEMENT_SET_NO = 999
REV_AT_EPOCH   = 563
BSTAR          = -.4895201E-4
MEAN_MOTION_DOT = -.2292E-4
MEAN_MOTION_DDOT = 0

CCSDS_OMM_VERS = 2.0
CREATION_DATE  = 
ORIGINATOR     = 

OBJECT_NAME    = STARLINK-36203
OBJECT_ID      = 2025-304Y
CENTER_NAME    = EARTH
REF_FRAME      = TEME
TIME_SYSTEM    = UTC
MEAN_ELEMENT_THEORY = SGP/SGP4

EPOCH          = 2026-01-13T22:00:01.999584
MEAN_MOTION    = 15.45041958
ECCENTRICITY   = .00035701
INCLINATION    = 70.0001
RA_OF_ASC_NODE = 317.4832
ARG_OF_PERICENTER = 284.6850
MEAN_ANOMALY   = 194.1018

EPHEMERIS_TYPE = 0
CLASSIFICATION_TYPE = U
NORAD_CAT_ID   = 67214
ELEMENT_SET_NO = 999
REV_AT_EPOCH   = 563
BSTAR          = -.65268428E-1
MEAN_MOTION_DOT = -.2710107E-1
MEAN_MOTION_DDOT = 0

CCSDS_OMM_VERS = 2.0
CREATION_DATE  = 
ORIGINATOR     = 

OBJECT_NAME    = STARLINK-36221
OBJECT_ID      = 2025-304Z
CENTER_NAME    = EARTH
REF_FRAME      = TEME
TIME_SYSTEM    = UTC
MEAN_ELEMENT_THEORY = SGP/SGP4

EPOCH          = 2026-01-13T22:00:01.999584
MEAN_MOTION    = 15.47276139
ECCENTRICITY   = .00034647
INCLINATION    = 70.0003
RA_OF_ASC_NODE = 317.4651
ARG_OF_PERICENTER = 275.9678
MEAN_ANOMALY   = 218.2418

EPHEMERIS_TYPE = 0
CLASSIFICATION_TYPE = U
NORAD_CAT_ID   = 67215
ELEMENT_SET_NO = 999
REV_AT_EPOCH   = 563
BSTAR          = -.45292933E-1
MEAN_MOTION_DOT = -.2062033E-1
MEAN_MOTION_DDOT = 0

CCSDS_OMM_VERS = 2.0
CREATION_DATE  = 
ORIGINATOR     = 

OBJECT_NAME    = STARLINK-36212
OBJECT_ID      = 2025-304AA
CENTER_NAME    = EARTH
REF_FRAME      = TEME
TIME_SYSTEM    = UTC
MEAN_ELEMENT_THEORY = SGP/SGP4

EPOCH          = 2026-01-13T22:55:43.171392
MEAN_MOTION    = 15.50236536
ECCENTRICITY   = .00032168
INCLINATION    = 70.0002
RA_OF_ASC_NODE = 317.3506
ARG_OF_PERICENTER = 301.6270
MEAN_ANOMALY   = 58.4601

EPHEMERIS_TYPE = 0
CLASSIFICATION_TYPE = U
NORAD_CAT_ID   = 67216
ELEMENT_SET_NO = 999
REV_AT_EPOCH   = 556
BSTAR          = -.663465E-2
MEAN_MOTION_DOT = -.359849E-2
MEAN_MOTION_DDOT = 0

CCSDS_OMM_VERS = 2.0
CREATION_DATE  = 
ORIGINATOR     = 

OBJECT_NAME    = STARLINK-36216
OBJECT_ID      = 2025-304AB
CENTER_NAME    = EARTH
REF_FRAME      = TEME
TIME_SYSTEM    = UTC
MEAN_ELEMENT_THEORY = SGP/SGP4

EPOCH          = 2026-01-13T18:16:03.914688
MEAN_MOTION    = 15.52560983
ECCENTRICITY   = .00034861
INCLINATION    = 70.0002
RA_OF_ASC_NODE = 317.8764
ARG_OF_PERICENTER = 268.5480
MEAN_ANOMALY   = 91.5308

EPHEMERIS_TYPE = 0
CLASSIFICATION_TYPE = U
NORAD_CAT_ID   = 67217
ELEMENT_SET_NO = 999
REV_AT_EPOCH   = 553
BSTAR          = .10490378E-2
MEAN_MOTION_DOT = .64999E-3
MEAN_MOTION_DDOT = 0

CCSDS_OMM_VERS = 2.0
CREATION_DATE  = 
ORIGINATOR     = 

OBJECT_NAME    = STARLINK-36211
OBJECT_ID      = 2025-304AC
CENTER_NAME    = EARTH
REF_FRAME      = TEME
TIME_SYSTEM    = UTC
MEAN_ELEMENT_THEORY = SGP/SGP4

EPOCH          = 2026-01-13T18:15:34.351200
MEAN_MOTION    = 15.52571325
ECCENTRICITY   = .00035988
INCLINATION    = 70.0002
RA_OF_ASC_NODE = 317.8752
ARG_OF_PERICENTER = 264.7758
MEAN_ANOMALY   = 95.3018

EPHEMERIS_TYPE = 0
CLASSIFICATION_TYPE = U
NORAD_CAT_ID   = 67218
ELEMENT_SET_NO = 999
REV_AT_EPOCH   = 550
BSTAR          = .97173611E-3
MEAN_MOTION_DOT = .60184E-3
MEAN_MOTION_DDOT = 0

CCSDS_OMM_VERS = 2.0
CREATION_DATE  = 
ORIGINATOR     = 

OBJECT_NAME    = DISKSAT C
OBJECT_ID      = 2025-305A
CENTER_NAME    = EARTH
REF_FRAME      = TEME
TIME_SYSTEM    = UTC
MEAN_ELEMENT_THEORY = SGP/SGP4

EPOCH          = 2026-01-13T17:21:57.754368
MEAN_MOTION    = 15.06389838
ECCENTRICITY   = .00019479
INCLINATION    = 45.0014
RA_OF_ASC_NODE = 181.5043
ARG_OF_PERICENTER = 20.7935
MEAN_ANOMALY   = 339.3018

EPHEMERIS_TYPE = 0
CLASSIFICATION_TYPE = U
NORAD_CAT_ID   = 67219
ELEMENT_SET_NO = 999
REV_AT_EPOCH   = 400
BSTAR          = .46355948E-3
MEAN_MOTION_DOT = .6702E-4
MEAN_MOTION_DDOT = 0

CCSDS_OMM_VERS = 2.0
CREATION_DATE  = 
ORIGINATOR     = 

OBJECT_NAME    = DISKSAT B
OBJECT_ID      = 2025-305B
CENTER_NAME    = EARTH
REF_FRAME      = TEME
TIME_SYSTEM    = UTC
MEAN_ELEMENT_THEORY = SGP/SGP4

EPOCH          = 2026-01-13T20:34:15.509280
MEAN_MOTION    = 15.06322570
ECCENTRICITY   = .00016371
INCLINATION    = 45.0014
RA_OF_ASC_NODE = 180.8091
ARG_OF_PERICENTER = 26.4540
MEAN_ANOMALY   = 333.6418

EPHEMERIS_TYPE = 0
CLASSIFICATION_TYPE = U
NORAD_CAT_ID   = 67220
ELEMENT_SET_NO = 999
REV_AT_EPOCH   = 402
BSTAR          = .44967028E-3
MEAN_MOTION_DOT = .6482E-4
MEAN_MOTION_DDOT = 0

CCSDS_OMM_VERS = 2.0
CREATION_DATE  = 
ORIGINATOR     = 

OBJECT_NAME    = DISKSAT D
OBJECT_ID      = 2025-305C
CENTER_NAME    = EARTH
REF_FRAME      = TEME
TIME_SYSTEM    = UTC
MEAN_ELEMENT_THEORY = SGP/SGP4

EPOCH          = 2026-01-13T12:37:52.948128
MEAN_MOTION    = 15.06284875
ECCENTRICITY   = .00020313
INCLINATION    = 45.0014
RA_OF_ASC_NODE = 182.5669
ARG_OF_PERICENTER = 34.4465
MEAN_ANOMALY   = 325.6541

EPHEMERIS_TYPE = 0
CLASSIFICATION_TYPE = U
NORAD_CAT_ID   = 67221
ELEMENT_SET_NO = 999
REV_AT_EPOCH   = 397
BSTAR          = .4560392E-3
MEAN_MOTION_DOT = .657E-4
MEAN_MOTION_DDOT = 0

